177P/Barnard,e,31.0346,271.9224,60.6619,24.51686,0.0081191,0.95459774,53.0066,07/19.0/2024,2000,g 15.0,4.0
# From MPEC 2021-F20
178P/Hug-Bell,e,11.0907,102.7932,297.9374,3.632808,0.1423444,0.48249088,208.1193,07/19.0/2024,2000,g 14.6,4.0
# From MPEC 2024-EF7
179P/Jedicke,e,19.8926,115.5135,297.1326,5.935460,0.0681589,0.30573841,53.1164,07/19.0/2024,2000,g  2.5,8.0
# From MPEC 2024-F34
180P/NEAT,e,16.8617,84.5596,94.6371,3.868332,0.1295444,0.35361714,48.3073,07/19.0/2024,2000,g 11.0,4.0
# From MPC 89012
181P/Shoemaker-Levy,e,17.4816,35.4249,336.2937,3.878061,0.1290572,0.70021179,119.0368,07/19.0/2024,2000,g 11.5,4.0
# From MPEC 2014-J10
182P/LONEOS,e,16.2319,72.4502,54.2046,2.949285,0.1945937,0.66366261,155.3896,07/19.0/2024,2000,g 18.0,4.0
# From MPEC 2023-A50
183P/Korlevic-Juric,e,18.7834,3.7940,164.1947,4.693820,0.0969202,0.10295714,246.7386,07/19.0/2024,2000,g 12.5,2.0
# From MPEC 2020-W26
184P/Lovas,e,4.5722,173.2749,186.5623,3.799562,0.1330772,0.55029349,181.2455,07/19.0/2024,2000,g 13.5,4.0
# From MPEC 2024-F91
185P/Petriew,e,14.0141,214.1162,181.9040,3.098849,0.1806772,0.69965620,67.2328,07/19.0/2024,2000,g 15.0,4.0
# From MPEC 2022-X67
186P/Garradd,e,28.6272,326.0686,268.9352,4.851968,0.0922204,0.12422657,187.6330,07/19.0/2024,2000,g  7.5,4.0
# From MPEC 2020-SI8
187P/LINEAR,e,13.6544,109.8443,131.2145,4.557969,0.1012854,0.15446580,228.8934,07/19.0/2024,2000,g  9.0,4.0
# From MPEC 2023-J29
188P/LINEAR-Mueller,e,10.5237,358.9318,26.7696,4.367332,0.1079891,0.41690005,291.6352,07/19.0/2024,2000,g 11.5,4.0
# From MPEC 2022-QD9
189P/NEAT,e,20.0991,281.6723,16.2413,2.942441,0.1952731,0.58940598,134.7634,07/19.0/2024,2000,g 19.0,4.0
# From MPEC 2024-N80
190P/Mueller,e,2.1747,335.5026,50.5143,4.226717,0.1134225,0.52218991,342.0659,07/19.0/2024,2000,g 13.0,4.0
# From MPEC 2022-X67
191P/McNaught,e,8.8391,98.1876,284.2497,3.639798,0.1419345,0.38556721,172.6611,07/19.0/2024,2000,g 13.0,4.0
# From MPEC 2024-LE0
192P/Shoemaker-Levy,e,24.5893,51.6125,313.0913,6.462659,0.0599912,0.77338853,3.3265,07/19.0/2024,2000,g 15.0,4.0
# From MPEC 2024-JU4
193P/LINEAR-NEAT,e,10.6828,335.1882,8.1357,3.578486,0.1455979,0.39300680,154.2389,07/19.0/2024,2000,g 14.0,4.0
# From MPEC 2024-GJ3
194P/LINEAR,e,11.8055,349.5251,128.5720,4.120451,0.1178384,0.56324789,19.5327,07/19.0/2024,2000,g 16.0,4.0
# From MPEC 2024-GJ3
195P/Hill,e,36.4253,243.1139,250.2667,6.468221,0.0599138,0.31312288,337.2444,07/19.0/2024,2000,g  8.5,4.0
# From MPEC 2024-GJ3
196P/Tichy,e,19.3003,24.1173,12.1000,3.804859,0.1327994,0.42787187,83.4834,07/19.0/2024,2000,g 13.5,4.0
# From MPEC 2023-UR6
197P/LINEAR,e,25.6557,66.2319,189.3820,2.885677,0.2010632,0.62804403,118.3206,07/19.0/2024,2000,g 16.5,2.0
# From NK 1596
198P/ODAS,e,1.3389,358.2014,69.3026,3.594004,0.1446559,0.44478590,295.2401,07/19.0/2024,2000,g  9.0,4.0
# From MPEC 2024-L77
199P/Shoemaker,e,24.9387,92.3482,191.7710,5.877025,0.0691780,0.50476747,23.9672,07/19.0/2024,2000,g 10.0,4.0
# From MPEC 2022-C56
200P/Larsen,e,12.0964,234.8043,134.3774,4.950760,0.0894739,0.33183250,162.4905,07/19.0/2024,2000,g  9.0,4.0
# From MPC 93588
201P/LONEOS,e,5.7393,41.5379,19.7733,3.354762,0.1604027,0.63759043,184.2324,07/19.0/2024,2000,g 14.0,4.0
# From MPEC 2023-XP6
202P/Scotti,e,2.1416,177.3085,274.4952,4.101920,0.1186379,0.25164793,7.4279,07/19.0/2024,2000,g 13.5,4.0
# From MPEC 2021-S45
203P/Korlevic,e,2.9746,290.2459,154.8575,4.668571,0.0977075,0.31631035,155.9029,07/19.0/2024,2000,g 14.5,2.0
# From MPEC 2024-JU4
204P/LINEAR-NEAT,e,6.5967,108.4803,356.6971,3.583647,0.1452835,0.48818496,88.6189,07/19.0/2024,2000,g 14.0,4.0
# From MPEC 2023_O39
205P/Giacobini,e,15.3037,179.6153,154.1805,3.542708,0.1478090,0.56745247,135.6568,07/19.0/2024,2000,g 13.0,4.0
# From MPC 75725
206P/Barnard-Boattini,e,33.6310,202.3510,189.5594,3.491066,0.1511009,0.55138327,186.1507,07/19.0/2024,2000,g 19.0,4.0
# From MPEC 2024-NE4
207P/NEAT,e,10.2010,198.1553,272.9969,3.884330,0.1287449,0.75844281,21.7809,07/19.0/2024,2000,g 16.0,4.0
# From MPEC 2024-NE4
208P/McMillan,e,4.4121,36.3363,310.6677,4.038161,0.1214587,0.37385959,355.6428,07/19.0/2024,2000,g 12.5,4.0
# From MPEC 2024-N80
209P/LINEAR,e,21.2825,62.7697,152.4938,2.958678,0.1936679,0.67403808,0.8721,07/19.0/2024,2000,g 17.0,2.0
# From MPC105242
210P/Christensen,e,10.2805,93.8240,345.9016,3.161871,0.1753024,0.83403489,273.8032,07/19.0/2024,2000,g 13.5,4.0
# From MPEC 2024-JU4
211P/Hill,e,18.9207,117.1081,4.3219,3.548819,0.1474275,0.34429429,96.2970,07/19.0/2024,2000,g 12.5,4.0
# From MPEC 2024-GJ3
212P/NEAT,e,22.1487,97.9754,14.0258,3.901000,0.1279205,0.58665444,10.8604,07/19.0/2024,2000,g 17.0,2.0
# From MPEC 2022-GA9
213P/Van Ness,e,10.3803,311.2902,5.8230,3.347025,0.1609592,0.40823374,40.2537,07/19.0/2024,2000,g 10.5,4.0
# From MPC 76570
213P-B/Van Ness,e,10.3778,5.7309,311.3916,3.347385,0.1609331,0.40839862,40.1015,07/19.0/2024,2000,g 17.0,4.0
# From MPC 76570
213P-C/Van Ness,e,10.3752,5.7122,311.3936,3.346758,0.1609784,0.40823823,40.3809,07/19.0/2024,2000,g 17.5,4.0
# From MPC 92986
214P/LINEAR,e,15.1870,348.2183,190.1366,3.617451,0.1432518,0.48595433,94.8130,07/19.0/2024,2000,g 13.0,4.0
# From MPEC 2024-F91
215P/NEAT,e,10.5765,56.6734,262.3808,4.334103,0.1092333,0.16526378,186.3299,07/19.0/2024,2000,g 11.0,4.0
# From MPEC 2024-N80
216P/LINEAR,e,9.0625,359.7974,151.7398,3.859005,0.1300143,0.44880080,25.2365,07/19.0/2024,2000,g 13.0,4.0
# From MPEC 2024-LE0
217P/LINEAR,e,12.8641,125.3765,247.0211,3.946012,0.1257380,0.68920090,321.0312,07/19.0/2024,2000,g 12.0,4.0
# From MPEC 2022-K19
218P/LINEAR,e,2.7247,175.4117,60.2930,3.075554,0.1827339,0.62908258,251.6241,07/19.0/2024,2000,g 16.0,4.0
# From MPEC 2024-N80
219P/LINEAR,e,11.5400,230.9531,107.6516,3.646264,0.1415572,0.35415047,22.0954,07/19.0/2024,2000,g 11.0,4.0
# From MPEC 2024-A43
220P/McNaught,e,8.1229,150.1019,180.6083,3.119263,0.1789065,0.50063876,235.6488,07/19.0/2024,2000,g 15.0,4.0
# From MPEC 2022-UY9
221P/LINEAR,e,11.5018,229.5607,39.3122,3.427836,0.1553009,0.50384164,145.7342,07/19.0/2024,2000,g 14.5,4.0
# From MPC 92277
222P/LINEAR,e,5.0960,6.7832,346.2860,2.897879,0.1997946,0.71472534,13.4073,07/19.0/2024,2000,g 20.0,4.0
# From MPEC 2023-A50
223P/Skiff,e,27.0098,346.7329,37.9499,4.158235,0.1162359,0.41648323,232.0941,07/19.0/2024,2000,g 12.0,4.0
# From MPEC 2024-L77
224P/LINEAR-NEAT,e,13.3050,40.0393,16.7689,3.445937,0.1540788,0.40582970,101.3584,07/19.0/2024,2000,g 15.5,4.0
# From MPEC 2024-F91
225P/LINEAR,e,21.3657,14.2029,3.9017,3.647331,0.1414951,0.63839506,48.9566,07/19.0/2024,2000,g 18.0,4.0
# From MPEC 2024-MB8
226P/Pigott-LINEAR-Kowalski,e,44.0455,54.0116,341.0337,3.766142,0.1348525,0.52908471,27.6243,07/19.0/2024,2000,g 12.5,4.0
# From MPEC 2024-MB8
227P/Catalina-LINEAR,e,7.5085,36.8095,105.5728,3.436516,0.1547129,0.52753304,20.5368,07/19.0/2024,2000,g 16.5,2.0
# From MPEC 2022-HC2
228P/LINEAR,e,7.9137,30.9705,114.7374,4.163961,0.1159963,0.17694156,184.8921,07/19.0/2024,2000,g 14.1,4.0
# From MPC106349
229P/Gibbs,e,26.1010,157.9331,224.1383,3.923428,0.1268252,0.37793151,330.8656,07/19.0/2024,2000,g 13.0,4.0
# From MPEC 2024-JU4
230P/LINEAR,e,15.4697,106.9406,313.5415,3.454386,0.1535139,0.54564531,130.8566,07/19.0/2024,2000,g 13.0,4.0
# From MPEC 2023-SQ0
231P/LINEAR-NEAT,e,12.2729,132.8449,43.9964,4.055946,0.1206607,0.24052264,225.7004,07/19.0/2024,2000,g 14.5,2.0
# From MPC112394
232P/Hill,e,14.6440,56.0270,53.2300,4.471785,0.1042276,0.33575131,201.0855,07/19.0/2024,2000,g 11.5,4.0
# From MPEC 2021-N06
233P/La Sagra,e,11.2889,74.9009,26.9956,3.027068,0.1871418,0.41281667,259.2869,07/19.0/2024,2000,g 15.0,4.0
# From MPEC 2024-DC6
234P/LINEAR,e,11.5354,179.5674,357.4206,3.796168,0.1332557,0.25691979,347.1302,07/19.0/2024,2000,g 12.0,4.0
# From MPC110497
235P/LINEAR,e,9.6166,203.7848,348.3041,3.501026,0.1504565,0.40680751,277.9384,07/19.0/2024,2000,g 12.0,4.0
# From MPEC 2023-J29
236P/LINEAR,e,16.3558,245.5695,119.4044,3.725262,0.1370784,0.50924966,332.6142,07/19.0/2024,2000,g 14.0,4.0
# From MPEC 2024-L77
237P/LINEAR,e,14.0176,245.3522,25.3524,3.512040,0.1497493,0.43380856,64.5729,07/19.0/2024,2000,g 14.5,2.0
# From MPEC 2024-L77
238P/Read,e,1.2640,51.6378,324.2596,3.166393,0.1749270,0.25103901,135.5067,07/19.0/2024,2000,g 14.5,4.0
# From MPEC 2021-F20
239P/LINEAR,e,11.3080,255.9479,220.3470,4.465217,0.1044577,0.63117607,210.6448,07/19.0/2024,2000,g 17.5,2.0
# From MPEC 2024-N80
240P/NEAT,e,23.5372,74.9164,352.0264,3.861477,0.1298894,0.45033819,292.5991,07/19.0/2024,2000,g 11.0,4.0
# From MPEC 2022-J42
241P/LINEAR,e,21.0950,305.4524,111.5420,4.925617,0.0901598,0.61041948,98.1629,07/19.0/2024,2000,g 13.5,4.0
# From MPEC 2024-L77
242P/Spahr,e,32.4464,180.3428,244.8617,5.532536,0.0757387,0.28213406,348.0990,07/19.0/2024,2000,g  8.0,4.0
# From MPEC 2022-K19
243P/NEAT,e,7.6438,87.6483,283.6719,3.828222,0.1315856,0.36052186,282.8429,07/19.0/2024,2000,g 12.5,4.0
# From MPEC 2024-L77
244P/Scotti,e,2.2585,354.0098,93.3307,4.901491,0.0908263,0.19984680,55.2228,07/19.0/2024,2000,g  9.0,4.0
# From MPEC 2022-CN4
245P/WISE,e,21.1746,316.8894,316.5418,4.050683,0.1208959,0.45567683,285.0032,07/19.0/2024,2000,g 14.0,4.0
# From MPEC 2024-L77
246P/NEAT,e,17.5822,74.3654,184.4527,4.145082,0.1167896,0.26527291,146.6285,07/19.0/2024,2000,g 10.5,4.0
# From MPEC 2021-F20
247P/LINEAR,e,13.6587,54.0061,47.4522,3.965378,0.1248180,0.62540428,256.5255,07/19.0/2024,2000,g 16.5,2.0
# From MPC 75730
248P/Gibbs,e,6.3514,207.8136,209.9452,5.984390,0.0673247,0.63934361,331.5302,07/19.0/2024,2000,g 14.0,4.0
# From MPEC 2022-YN2
249P/LINEAR,e,8.3854,239.0437,65.7478,2.764734,0.2143997,0.81935324,317.6144,07/19.0/2024,2000,g 15.5,4.0
# From MPC110497
250P/Larson,e,13.1571,73.2845,45.8560,3.777378,0.1342513,0.39877519,319.4450,07/19.0/2024,2000,g 14.5,4.0
# From MPEC 2024-N80
251P/LINEAR,e,23.3869,219.3405,31.2101,3.513139,0.1496791,0.50436631,23.4660,07/19.0/2024,2000,g 16.5,2.0
# From MPEC 2021-S45
252P/LINEAR,e,10.4168,190.9067,343.3819,3.051229,0.1849234,0.67085513,204.2934,07/19.0/2024,2000,g 17.5,4.0
# From MPEC 2024-LE0
